ONEWEB-0710             
1 55173U 23004AK  24096.63419953 -.00000005  00000+0 -46014-4 0  9996
2 55173  87.9231 165.5845 0002240 105.8657 254.2721 13.17648818 61891
ONEWEB-0711             
1 55174U 23004AL  24096.76240812  .00000531  00000+0  14632-2 0  9998
2 55174  87.9031 180.6556 0002881  93.1281 267.0176 13.11416538 60666
ONEWEB-0713             
1 55175U 23004AM  24097.23803768  .00000118  00000+0  29822-3 0  9996
2 55175  87.9029 180.5694 0002350  96.5673 263.5722 13.11415741 60718
ONEWEB-0715             
1 55176U 23004AN  24096.77537752  .00000355  00000+0  96533-3 0  9998
2 55176  87.9029 180.6607 0002202  96.1409 263.9970 13.11415209 60698
ONEWEB-0716             
1 55177U 23004AP  24096.70379757  .00000223  00000+0  54156-3 0  9990
2 55177  87.9226 165.5604 0001733  95.5973 264.5356 13.17648041 61902
ONEWEB-0717             
1 55178U 23004AQ  24096.68641088  .00000010  00000+0 -76876-5 0  9997
2 55178  87.9232 165.5297 0003110 102.1839 257.9641 13.17649241 61956
ONEWEB-0719             
1 55179U 23004AR  24096.69747221  .00000046  00000+0  85782-4 0  9998
2 55179  87.9230 165.5141 0002042  91.8305 268.3061 13.17647096 61901
ONEWEB-0530             
1 55796U 23029A   24096.90180552  .00000043  00000+0  72749-4 0  9998
2 55796  87.9157  74.1176 0002546  80.6246 279.5175 13.20769815 55244
